{"type": "FeatureCollection", "features": [ {"type": "Feature", "properties": {"norad_id": 34875, "name": "COSMOS 2251 DEB", "group": "cosmos-2251-debris", "lat": -36.94874184340172, "lon": 140.7007917336602, "alt_km": 726.9872782174298, "timestamp": "2025-12-15T10:55:21.540105+00:00", "meta": {"OBJECT_NAME": "COSMOS 2251 DEB", "OBJECT_ID": "1993-036ACN", "EPOCH": "2025-12-14T22:33:41.164992", "MEAN_MOTION": 14.48933772, "ECCENTRICITY": 0.00161632, "INCLINATION": 74.0438, "RA_OF_ASC_NODE": 154.0924, "ARG_OF_PERICENTER": 277.5949, "MEAN_ANOMALY": 238.1777, "EPHEMERIS_TYPE": 0, "CLASSIFICATION_TYPE": "U", "NORAD_CAT_ID": 34875, "ELEMENT_SET_NO": 999, "REV_AT_EPOCH": 87787, "BSTAR": 0.00042314776, "MEAN_MOTION_DOT": 1.578e-05, "MEAN_MOTION_DDOT": 0}, "tle": {"line1": "1 34875U 93036ACN 25348.94005978  .00001578  00000+0  42315-3 0  9990", "line2": "2 34875  74.0438 154.0924 0016163 277.5949 238.1777 14.48933772877870"}}, "geometry": {"type": "Point", "coordinates": [140.7007917336602, -36.94874184340172]}}, {"type": "Feature", "properties": {"norad_id": 34878, "name": "COSMOS 2251 DEB", "group": "cosmos-2251-debris", "lat": 27.613342994506493, "lon": -145.63563562580518, "alt_km": 1269.2817753686759, "timestamp": "2025-12-15T10:55:21.540116+00:00", "meta": {"OBJECT_NAME": "COSMOS 2251 DEB", "OBJECT_ID": "1993-036ACR", "EPOCH": "2025-12-14T03:58:57.121824", "MEAN_MOTION": 13.44193143, "ECCENTRICITY": 0.04354176, "INCLINATION": 73.965, "RA_OF_ASC_NODE": 45.0605, "ARG_OF_PERICENTER": 28.3042, "MEAN_ANOMALY": 2.4735, "EPHEMERIS_TYPE": 0, "CLASSIFICATION_TYPE": "U", "NORAD_CAT_ID": 34878, "ELEMENT_SET_NO": 999, "REV_AT_EPOCH": 81292, "BSTAR": 0.00074055202, "MEAN_MOTION_DOT": 7.4e-06, "MEAN_MOTION_DDOT": 0}, "tle": {"line1": "1 34878U 93036ACR 25348.16593891  .00000740  00000+0  74055-3 0  9999", "line2": "2 34878  73.9650  45.0605 0435417  28.3042   2.4735 13.44193143812921"}}, "geometry": {"type": "Point", "coordinates": [-145.63563562580518, 27.613342994506493]}}, {"type": "Feature", "properties": {"norad_id": 34882, "name": "COSMOS 2251 DEB", "group": "cosmos-2251-debris", "lat": 27.587462235806832, "lon": -131.00263137297694, "alt_km": 642.9740562734523, "timestamp": "2025-12-15T10:55:21.540125+00:00", "meta": {"OBJECT_NAME": "COSMOS 2251 DEB", "OBJECT_ID": "1993-036ACV", "EPOCH": "2025-12-12T15:26:33.087264", "MEAN_MOTION": 14.61597611, "ECCENTRICITY": 0.00828094, "INCLINATION": 74.0462, "RA_OF_ASC_NODE": 225.7751, "ARG_OF_PERICENTER": 352.7324, "MEAN_ANOMALY": 7.2634, "EPHEMERIS_TYPE": 0, "CLASSIFICATION_TYPE": "U", "NORAD_CAT_ID": 34882, "ELEMENT_SET_NO": 999, "REV_AT_EPOCH": 88523, "BSTAR": 0.00026902724, "MEAN_MOTION_DOT": 1.371e-05, "MEAN_MOTION_DDOT": 0}, "tle": {"line1": "1 34882U 93036ACV 25346.64343851  .00001371  00000+0  26903-3 0  9994", "line2": "2 34882  74.0462 225.7751 0082809 352.7324   7.2634 14.61597611885231"}}, "geometry": {"type": "Point", "coordinates": [-131.00263137297694, 27.587462235806832]}}, {"type": "Feature", "properties": {"norad_id": 34883, "name": "COSMOS 2251 DEB", "group": "cosmos-2251-debris", "lat": -20.458070826325446, "lon": 51.59344676138113, "alt_km": 732.4995102546427, "timestamp": "2025-12-15T10:55:21.540136+00:00", "meta": {"OBJECT_NAME": "COSMOS 2251 DEB", "OBJECT_ID": "1993-036ACW", "EPOCH": "2025-12-12T05:16:46.096608", "MEAN_MOTION": 14.51477124, "ECCENTRICITY": 0.00951451, "INCLINATION": 74.1989, "RA_OF_ASC_NODE": 63.6857, "ARG_OF_PERICENTER": 248.9733, "MEAN_ANOMALY": 110.1233, "EPHEMERIS_TYPE": 0, "CLASSIFICATION_TYPE": "U", "NORAD_CAT_ID": 34883, "ELEMENT_SET_NO": 999, "REV_AT_EPOCH": 86432, "BSTAR": 0.0063651984, "MEAN_MOTION_DOT": 0.00027049, "MEAN_MOTION_DDOT": 0}, "tle": {"line1": "1 34883U 93036ACW 25346.21997797  .00027049  00000+0  63652-2 0  9993", "line2": "2 34883  74.1989  63.6857 0095145 248.9733 110.1233 14.51477124864321"}}, "geometry": {"type": "Point", "coordinates": [51.59344676138113, -20.458070826325446]}}, {"type": "Feature", "properties": {"norad_id": 34884, "name": "COSMOS 2251 DEB", "group": "cosmos-2251-debris", "lat": -65.86906381504991, "lon": 11.526324138571395, "alt_km": 605.4516249858989, "timestamp": "2025-12-15T10:55:21.540146+00:00", "meta": {"OBJECT_NAME": "COSMOS 2251 DEB", "OBJECT_ID": "1993-036ACX", "EPOCH": "2025-12-14T21:16:56.077824", "MEAN_MOTION": 14.90187629, "ECCENTRICITY": 0.00023957, "INCLINATION": 74.0179, "RA_OF_ASC_NODE": 52.44, "ARG_OF_PERICENTER": 69.2193, "MEAN_ANOMALY": 51.407, "EPHEMERIS_TYPE": 0, "CLASSIFICATION_TYPE": "U", "NORAD_CAT_ID": 34884, "ELEMENT_SET_NO": 999, "REV_AT_EPOCH": 87837, "BSTAR": 0.0015053907, "MEAN_MOTION_DOT": 0.00014583, "MEAN_MOTION_DDOT": 0}, "tle": {"line1": "1 34884U 93036ACX 25348.88676016  .00014583  00000+0  15054-2 0  9999", "line2": "2 34884  74.0179  52.4400 0002395  69.2193  51.4070 14.90187629878378"}}, "geometry": {"type": "Point", "coordinates": [11.526324138571395, -65.86906381504991]}}, {"type": "Feature", "properties": {"norad_id": 34885, "name": "COSMOS 2251 DEB", "group": "cosmos-2251-debris", "lat": 22.11940516522012, "lon": -8.774141841546596, "alt_km": 723.0768983653443, "timestamp": "2025-12-15T10:55:21.540156+00:00", "meta": {"OBJECT_NAME": "COSMOS 2251 DEB", "OBJECT_ID": "1993-036ACY", "EPOCH": "2025-12-14T16:20:13.916832", "MEAN_MOTION": 14.51514954, "ECCENTRICITY": 0.00151741, "INCLINATION": 74.0303, "RA_OF_ASC_NODE": 179.3674, "ARG_OF_PERICENTER": 264.8034, "MEAN_ANOMALY": 167.2878, "EPHEMERIS_TYPE": 0, "CLASSIFICATION_TYPE": "U", "NORAD_CAT_ID": 34885, "ELEMENT_SET_NO": 999, "REV_AT_EPOCH": 87507, "BSTAR": 0.00065849049, "MEAN_MOTION_DOT": 2.61e-05, "MEAN_MOTION_DDOT": 0}, "tle": {"line1": "1 34885U 93036ACY 25348.68071663  .00002610  00000+0  65849-3 0  9991", "line2": "2 34885  74.0303 179.3674 0015174 264.8034 167.2878 14.51514954875074"}}, "geometry": {"type": "Point", "coordinates": [-8.774141841546596, 22.11940516522012]}}, {"type": "Feature", "properties": {"norad_id": 34886, "name": "COSMOS 2251 DEB", "group": "cosmos-2251-debris", "lat": 13.495230395890195, "lon": 179.0664920768719, "alt_km": 429.59150472710826, "timestamp": "2025-12-15T10:55:21.540166+00:00", "meta": {"OBJECT_NAME": "COSMOS 2251 DEB", "OBJECT_ID": "1993-036ACZ", "EPOCH": "2025-12-13T21:25:05.379168", "MEAN_MOTION": 15.38859949, "ECCENTRICITY": 0.00306549, "INCLINATION": 73.9501, "RA_OF_ASC_NODE": 178.4925, "ARG_OF_PERICENTER": 1.8054, "MEAN_ANOMALY": 358.3257, "EPHEMERIS_TYPE": 0, "CLASSIFICATION_TYPE": "U", "NORAD_CAT_ID": 34886, "ELEMENT_SET_NO": 999, "REV_AT_EPOCH": 63016, "BSTAR": 0.0017695785, "MEAN_MOTION_DOT": 0.00069737, "MEAN_MOTION_DDOT": 0}, "tle": {"line1": "1 34886U 93036ACZ 25347.89242337  .00069737  00000+0  17696-2 0  9991", "line2": "2 34886  73.9501 178.4925 0030654   1.8054 358.3257 15.38859949630168"}}, "geometry": {"type": "Point", "coordinates": [179.0664920768719, 13.495230395890195]}}, {"type": "Feature", "properties": {"norad_id": 34907, "name": "COSMOS 2251 DEB", "group": "cosmos-2251-debris", "lat": 4.110493239244219, "lon": 43.65814453638656, "alt_km": 417.80955427738445, "timestamp": "2025-12-15T10:55:21.540176+00:00", "meta": {"OBJECT_NAME": "COSMOS 2251 DEB", "OBJECT_ID": "1993-036ADC", "EPOCH": "2025-12-13T21:37:21.110592", "MEAN_MOTION": 15.45090165, "ECCENTRICITY": 0.00204412, "INCLINATION": 73.9706, "RA_OF_ASC_NODE": 45.8736, "ARG_OF_PERICENTER": 339.7109, "MEAN_ANOMALY": 20.3287, "EPHEMERIS_TYPE": 0, "CLASSIFICATION_TYPE": "U", "NORAD_CAT_ID": 34907, "ELEMENT_SET_NO": 999, "REV_AT_EPOCH": 87991, "BSTAR": 0.0077288199, "MEAN_MOTION_DOT": 0.0038692, "MEAN_MOTION_DDOT": 0}, "tle": {"line1": "1 34907U 93036ADC 25347.90093878  .00386920  00000+0  77288-2 0  9990", "line2": "2 34907  73.9706  45.8736 0020441 339.7109  20.3287 15.45090165879915"}}, "geometry": {"type": "Point", "coordinates": [43.65814453638656, 4.110493239244219]}}, {"type": "Feature", "properties": {"norad_id": 34908, "name": "COSMOS 2251 DEB", "group": "cosmos-2251-debris", "lat": 71.69134241179879, "lon": 78.41020988492916, "alt_km": 740.1864150820129, "timestamp": "2025-12-15T10:55:21.540187+00:00", "meta": {"OBJECT_NAME": "COSMOS 2251 DEB", "OBJECT_ID": "1993-036ADD", "EPOCH": "2025-12-14T09:34:06.911040", "MEAN_MOTION": 14.37404809, "ECCENTRICITY": 0.00401093, "INCLINATION": 74.0594, "RA_OF_ASC_NODE": 20.6082, "ARG_OF_PERICENTER": 36.1567, "MEAN_ANOMALY": 340.0067, "EPHEMERIS_TYPE": 0, "CLASSIFICATION_TYPE": "U", "NORAD_CAT_ID": 34908, "ELEMENT_SET_NO": 999, "REV_AT_EPOCH": 87303, "BSTAR": 0.00061029939, "MEAN_MOTION_DOT": 1.815e-05, "MEAN_MOTION_DDOT": 0}, "tle": {"line1": "1 34908U 93036ADD 25348.39869110  .00001815  00000+0  61030-3 0  9991", "line2": "2 34908  74.0594  20.6082 0040109  36.1567 340.0067 14.37404809873036"}}, "geometry": {"type": "Point", "coordinates": [78.41020988492916, 71.69134241179879]}}, {"type": "Feature", "properties": {"norad_id": 34909, "name": "COSMOS 2251 DEB", "group": "cosmos-2251-debris", "lat": -64.55782003491218, "lon": -71.71280720995024, "alt_km": 599.7844877071338, "timestamp": "2025-12-15T10:55:21.540196+00:00", "meta": {"OBJECT_NAME": "COSMOS 2251 DEB", "OBJECT_ID": "1993-036ADE", "EPOCH": "2025-12-14T15:55:30.641376", "MEAN_MOTION": 14.77856453, "ECCENTRICITY": 0.00843726, "INCLINATION": 74.0146, "RA_OF_ASC_NODE": 72.7889, "ARG_OF_PERICENTER": 208.1452, "MEAN_ANOMALY": 151.5151, "EPHEMERIS_TYPE": 0, "CLASSIFICATION_TYPE": "U", "NORAD_CAT_ID": 34909, "ELEMENT_SET_NO": 999, "REV_AT_EPOCH": 66880, "BSTAR": 0.00052421635, "MEAN_MOTION_DOT": 3.965e-05, "MEAN_MOTION_DDOT": 0}, "tle": {"line1": "1 34909U 93036ADE 25348.66354909  .00003965  00000+0  52422-3 0  9990", "line2": "2 34909  74.0146  72.7889 0084372 208.1452 151.5151 14.77856453668803"}}, "geometry": {"type": "Point", "coordinates": [-71.71280720995024, -64.55782003491218]}}]}